CCSDS_OMM_VERS = 2.0
CREATION_DATE  = 
ORIGINATOR     = 

OBJECT_NAME    = IDEFIX & ARIANE 42P R/B
OBJECT_ID      = 2002-021B
CENTER_NAME    = EARTH
REF_FRAME      = TEME
TIME_SYSTEM    = UTC
MEAN_ELEMENT_THEORY = SGP/SGP4

EPOCH          = 2026-02-09T19:22:36.236640
MEAN_MOTION    = 14.31005896
ECCENTRICITY   = .00106583
INCLINATION    = 98.5841
RA_OF_ASC_NODE = 339.7521
ARG_OF_PERICENTER = 270.5320
MEAN_ANOMALY   = 89.4642

EPHEMERIS_TYPE = 0
CLASSIFICATION_TYPE = U
NORAD_CAT_ID   = 27422
ELEMENT_SET_NO = 999
REV_AT_EPOCH   = 24003
BSTAR          = .15105872E-3
MEAN_MOTION_DOT = .354E-5
MEAN_MOTION_DDOT = 0

CCSDS_OMM_VERS = 2.0
CREATION_DATE  = 
ORIGINATOR     = 

OBJECT_NAME    = AQUA
OBJECT_ID      = 2002-022A
CENTER_NAME    = EARTH
REF_FRAME      = TEME
TIME_SYSTEM    = UTC
MEAN_ELEMENT_THEORY = SGP/SGP4

EPOCH          = 2026-02-10T04:04:35.254272
MEAN_MOTION    = 14.61907867
ECCENTRICITY   = .0001464
INCLINATION    = 98.4124
RA_OF_ASC_NODE = 8.0447
ARG_OF_PERICENTER = 52.4189
MEAN_ANOMALY   = 4.7233

EPHEMERIS_TYPE = 0
CLASSIFICATION_TYPE = U
NORAD_CAT_ID   = 27424
ELEMENT_SET_NO = 999
REV_AT_EPOCH   = 26471
BSTAR          = .25264E-3
MEAN_MOTION_DOT = .1215E-4
MEAN_MOTION_DDOT = 0

CCSDS_OMM_VERS = 2.0
CREATION_DATE  = 
ORIGINATOR     = 

OBJECT_NAME    = CZ-4B R/B
OBJECT_ID      = 2002-024C
CENTER_NAME    = EARTH
REF_FRAME      = TEME
TIME_SYSTEM    = UTC
MEAN_ELEMENT_THEORY = SGP/SGP4

EPOCH          = 2026-02-09T23:49:27.617664
MEAN_MOTION    = 14.14542502
ECCENTRICITY   = .0051148
INCLINATION    = 98.8902
RA_OF_ASC_NODE = 94.5307
ARG_OF_PERICENTER = 101.5905
MEAN_ANOMALY   = 325.8929

EPHEMERIS_TYPE = 0
CLASSIFICATION_TYPE = U
NORAD_CAT_ID   = 27432
ELEMENT_SET_NO = 999
REV_AT_EPOCH   = 22532
BSTAR          = .45155E-4
MEAN_MOTION_DOT = .44E-6
MEAN_MOTION_DDOT = 0

CCSDS_OMM_VERS = 2.0
CREATION_DATE  = 
ORIGINATOR     = 

OBJECT_NAME    = MIDORI II (ADEOS-II)
OBJECT_ID      = 2002-056A
CENTER_NAME    = EARTH
REF_FRAME      = TEME
TIME_SYSTEM    = UTC
MEAN_ELEMENT_THEORY = SGP/SGP4

EPOCH          = 2026-02-09T20:55:05.549664
MEAN_MOTION    = 14.29263883
ECCENTRICITY   = .0002159
INCLINATION    = 98.7719
RA_OF_ASC_NODE = 359.1663
ARG_OF_PERICENTER = 81.7844
MEAN_ANOMALY   = 278.3582

EPHEMERIS_TYPE = 0
CLASSIFICATION_TYPE = U
NORAD_CAT_ID   = 27597
ELEMENT_SET_NO = 999
REV_AT_EPOCH   = 20632
BSTAR          = .16983E-3
MEAN_MOTION_DOT = .387E-5
MEAN_MOTION_DDOT = 0

CCSDS_OMM_VERS = 2.0
CREATION_DATE  = 
ORIGINATOR     = 

OBJECT_NAME    = H-2A R/B
OBJECT_ID      = 2002-056E
CENTER_NAME    = EARTH
REF_FRAME      = TEME
TIME_SYSTEM    = UTC
MEAN_ELEMENT_THEORY = SGP/SGP4

EPOCH          = 2026-02-09T22:18:54.872928
MEAN_MOTION    = 14.33740968
ECCENTRICITY   = .0069074
INCLINATION    = 98.3150
RA_OF_ASC_NODE = 2.3610
ARG_OF_PERICENTER = 243.9681
MEAN_ANOMALY   = 166.1381

EPHEMERIS_TYPE = 0
CLASSIFICATION_TYPE = U
NORAD_CAT_ID   = 27601
ELEMENT_SET_NO = 999
REV_AT_EPOCH   = 21013
BSTAR          = .14425E-3
MEAN_MOTION_DOT = .369E-5
MEAN_MOTION_DDOT = 0

CCSDS_OMM_VERS = 2.0
CREATION_DATE  = 
ORIGINATOR     = 

OBJECT_NAME    = CZ-4B R/B
OBJECT_ID      = 2003-049C
CENTER_NAME    = EARTH
REF_FRAME      = TEME
TIME_SYSTEM    = UTC
MEAN_ELEMENT_THEORY = SGP/SGP4

EPOCH          = 2026-02-09T22:40:44.320224
MEAN_MOTION    = 14.54989566
ECCENTRICITY   = .0047401
INCLINATION    = 98.6849
RA_OF_ASC_NODE = 34.7682
ARG_OF_PERICENTER = 317.4883
MEAN_ANOMALY   = 42.2646

EPHEMERIS_TYPE = 0
CLASSIFICATION_TYPE = U
NORAD_CAT_ID   = 28059
ELEMENT_SET_NO = 999
REV_AT_EPOCH   = 18256
BSTAR          = .14187E-3
MEAN_MOTION_DOT = .568E-5
MEAN_MOTION_DDOT = 0

CCSDS_OMM_VERS = 2.0
CREATION_DATE  = 
ORIGINATOR     = 

OBJECT_NAME    = CZ-2C R/B
OBJECT_ID      = 2004-012C
CENTER_NAME    = EARTH
REF_FRAME      = TEME
TIME_SYSTEM    = UTC
MEAN_ELEMENT_THEORY = SGP/SGP4

EPOCH          = 2026-02-10T03:22:59.128896
MEAN_MOTION    = 15.61359870
ECCENTRICITY   = .0015794
INCLINATION    = 97.7303
RA_OF_ASC_NODE = 103.8855
ARG_OF_PERICENTER = 55.3232
MEAN_ANOMALY   = 304.9510

EPHEMERIS_TYPE = 0
CLASSIFICATION_TYPE = U
NORAD_CAT_ID   = 28222
ELEMENT_SET_NO = 999
REV_AT_EPOCH   = 19997
BSTAR          = .57539E-3
MEAN_MOTION_DOT = .49343E-3
MEAN_MOTION_DDOT = 0

CCSDS_OMM_VERS = 2.0
CREATION_DATE  = 
ORIGINATOR     = 

OBJECT_NAME    = SL-16 R/B
OBJECT_ID      = 2004-021B
CENTER_NAME    = EARTH
REF_FRAME      = TEME
TIME_SYSTEM    = UTC
MEAN_ELEMENT_THEORY = SGP/SGP4

EPOCH          = 2026-02-10T02:11:23.288928
MEAN_MOTION    = 14.14590483
ECCENTRICITY   = .0002994
INCLINATION    = 70.9996
RA_OF_ASC_NODE = 290.4132
ARG_OF_PERICENTER = 78.7281
MEAN_ANOMALY   = 281.4178

EPHEMERIS_TYPE = 0
CLASSIFICATION_TYPE = U
NORAD_CAT_ID   = 28353
ELEMENT_SET_NO = 999
REV_AT_EPOCH   = 11893
BSTAR          = .11444E-3
MEAN_MOTION_DOT = .172E-5
MEAN_MOTION_DDOT = 0

CCSDS_OMM_VERS = 2.0
CREATION_DATE  = 
ORIGINATOR     = 

OBJECT_NAME    = CZ-4B R/B
OBJECT_ID      = 2004-035C
CENTER_NAME    = EARTH
REF_FRAME      = TEME
TIME_SYSTEM    = UTC
MEAN_ELEMENT_THEORY = SGP/SGP4

EPOCH          = 2026-02-10T00:37:48.770688
MEAN_MOTION    = 15.28548787
ECCENTRICITY   = .0034078
INCLINATION    = 97.3548
RA_OF_ASC_NODE = 75.6058
ARG_OF_PERICENTER = 68.0986
MEAN_ANOMALY   = 292.3871

EPHEMERIS_TYPE = 0
CLASSIFICATION_TYPE = U
NORAD_CAT_ID   = 28415
ELEMENT_SET_NO = 999
REV_AT_EPOCH   = 17568
BSTAR          = .31028E-3
MEAN_MOTION_DOT = .8694E-4
MEAN_MOTION_DDOT = 0

CCSDS_OMM_VERS = 2.0
CREATION_DATE  = 
ORIGINATOR     = 

OBJECT_NAME    = CZ-2C R/B
OBJECT_ID      = 2004-046B
CENTER_NAME    = EARTH
REF_FRAME      = TEME
TIME_SYSTEM    = UTC
MEAN_ELEMENT_THEORY = SGP/SGP4

EPOCH          = 2026-02-09T18:55:29.327232
MEAN_MOTION    = 14.26982356
ECCENTRICITY   = .01383381
INCLINATION    = 98.1994
RA_OF_ASC_NODE = 317.5054
ARG_OF_PERICENTER = 237.1651
MEAN_ANOMALY   = 121.6149

EPHEMERIS_TYPE = 0
CLASSIFICATION_TYPE = U
NORAD_CAT_ID   = 28480
ELEMENT_SET_NO = 999
REV_AT_EPOCH   = 10452
BSTAR          = .74942439E-4
MEAN_MOTION_DOT = .159E-5
MEAN_MOTION_DDOT = 0

CCSDS_OMM_VERS = 2.0
CREATION_DATE  = 
ORIGINATOR     = 

OBJECT_NAME    = ARIANE 5 R/B
OBJECT_ID      = 2004-049H
CENTER_NAME    = EARTH
REF_FRAME      = TEME
TIME_SYSTEM    = UTC
MEAN_ELEMENT_THEORY = SGP/SGP4

EPOCH          = 2026-02-10T00:16:00.354144
MEAN_MOTION    = 14.85209406
ECCENTRICITY   = .0085493
INCLINATION    = 98.2583
RA_OF_ASC_NODE = 208.4414
ARG_OF_PERICENTER = 80.9854
MEAN_ANOMALY   = 280.1024

EPHEMERIS_TYPE = 0
CLASSIFICATION_TYPE = U
NORAD_CAT_ID   = 28499
ELEMENT_SET_NO = 999
REV_AT_EPOCH   = 14168
BSTAR          = .12696E-3
MEAN_MOTION_DOT = .1098E-4
MEAN_MOTION_DDOT = 0

CCSDS_OMM_VERS = 2.0
CREATION_DATE  = 
ORIGINATOR     = 

OBJECT_NAME    = CZ-2D R/B
OBJECT_ID      = 2005-024B
CENTER_NAME    = EARTH
REF_FRAME      = TEME
TIME_SYSTEM    = UTC
MEAN_ELEMENT_THEORY = SGP/SGP4

EPOCH          = 2026-02-09T23:28:47.388864
MEAN_MOTION    = 15.57712382
ECCENTRICITY   = .0007512
INCLINATION    = 97.3622
RA_OF_ASC_NODE = 55.1623
ARG_OF_PERICENTER = 113.6097
MEAN_ANOMALY   = 246.5948

EPHEMERIS_TYPE = 0
CLASSIFICATION_TYPE = U
NORAD_CAT_ID   = 28738
ELEMENT_SET_NO = 999
REV_AT_EPOCH   = 13546
BSTAR          = .52164E-3
MEAN_MOTION_DOT = .3872E-3
MEAN_MOTION_DDOT = 0

